[{"OBJECT_NAME":"ION SCV-011","OBJECT_ID":"2023-084AB","EPOCH":"2026-03-09T22:35:16.566144","MEAN_MOTION":15.27752464,"ECCENTRICITY":0.00079323,"INCLINATION":98.1356,"RA_OF_ASC_NODE":247.1056,"ARG_OF_PERICENTER":30.3898,"MEAN_ANOMALY":329.7798,"EPHEMERIS_TYPE":0,"CLASSIFICATION_TYPE":"U","NORAD_CAT_ID":56957,"ELEMENT_SET_NO":999,"REV_AT_EPOCH":15065,"BSTAR":0.0002590454,"MEAN_MOTION_DOT":6.943e-5,"MEAN_MOTION_DDOT":0},{"OBJECT_NAME":"STARLINK-34582","OBJECT_ID":"2025-147AC","EPOCH":"2026-03-09T17:57:58.023936","MEAN_MOTION":15.30200104,"ECCENTRICITY":9.203e-5,"INCLINATION":53.1591,"RA_OF_ASC_NODE":242.2635,"ARG_OF_PERICENTER":68.7864,"MEAN_ANOMALY":291.3235,"EPHEMERIS_TYPE":0,"CLASSIFICATION_TYPE":"U","NORAD_CAT_ID":64781,"ELEMENT_SET_NO":999,"REV_AT_EPOCH":3869,"BSTAR":0.00081938054,"MEAN_MOTION_DOT":0.00023987,"MEAN_MOTION_DDOT":0}]
